{"type":"FeatureCollection","attribution":"\u00a9 OpenStreetMap contributors (ODbL)","features":[{"type":"Feature","properties":{"waterway":"stream","osm_id":"way/221338624"},"geometry":{"type":"Polygon","coordinates":[[[3.35173,6.608263],[3.352419,6.608022],[3.352575,6.607825],[3.352943,6.607614],[3.353084,6.607339],[3.353566,6.606981],[3.354444,6.606707],[3.354974,6.606805],[3.35513,6.606545],[3.355102,6.606278],[3.354889,6.605497],[3.354988,6.604689],[3.355562,6.60445],[3.355958,6.604091],[3.356567,6.603648],[3.357048,6.603008],[3.357484,6.602556],[3.358733,6.601039],[3.359049,6.600345],[3.35959,6.599849],[3.360041,6.599007],[3.360194,6.59852],[3.360508,6.598086],[3.361463,6.597276],[3.361854,6.597036],[3.36219,6.59666],[3.362926,6.596206],[3.363356,6.595549],[3.363936,6.594952],[3.364276,6.594446],[3.365346,6.593439],[3.366349,6.592101],[3.366216,6.591969],[3.367116,6.591009],[3.367878,6.589696],[3.368954,6.588827],[3.370408,6.586448],[3.370625,6.58563],[3.370834,6.584079],[3.371006,6.583661],[3.371196,6.583336],[3.371263,6.582424],[3.372217,6.580916],[3.35173,6.608263]]]}},{"type":"Feature","properties":{"waterway":"stream","osm_id":"way/221338632"},"geometry":{"type":"Polygon","coordinates":[[[3.347698,6.593902],[3.348754,6.593886],[3.349583,6.593734],[3.350448,6.593648],[3.351581,6.593359],[3.352202,6.592976],[3.353252,6.592672],[3.353881,6.592744],[3.354392,6.592394],[3.355857,6.592],[3.357294,6.591137],[3.358362,6.589964],[3.361556,6.587093],[3.362436,6.585984],[3.364064,6.58379],[3.364601,6.583258],[3.364822,6.582447],[3.365684,6.581574],[3.366876,6.581092],[3.367979,6.581037],[3.368884,6.581206],[3.369292,6.5817],[3.369733,6.581762],[3.370684,6.581606],[3.371015,6.581482],[3.371823,6.581379],[3.371998,6.5811],[3.372217,6.580916],[3.347698,6.593902]]]}},{"type":"Feature","properties":{"waterway":"stream","osm_id":"way/604386563"},"geometry":{"type":"Polygon","coordinates":[[[3.348523,6.622336],[3.348718,6.621706],[3.348767,6.621044],[3.349052,6.620067],[3.349637,6.619566],[3.350019,6.619106],[3.350165,6.618605],[3.350621,6.61808],[3.350962,6.617571],[3.351117,6.617046],[3.351068,6.616877],[3.351377,6.616416],[3.351296,6.615883],[3.35145,6.615625],[3.351328,6.615455],[3.35154,6.615027],[3.351466,6.614534],[3.351572,6.613856],[3.351548,6.613226],[3.351401,6.612903],[3.351483,6.612547],[3.351206,6.612265],[3.351044,6.611441],[3.350816,6.611215],[3.350832,6.610722],[3.350604,6.610456],[3.350661,6.609858],[3.350743,6.609551],[3.350702,6.609236],[3.350873,6.609018],[3.350946,6.608751],[3.350889,6.608541],[3.348523,6.622336]]]}},{"type":"Feature","properties":{"waterway":"stream","osm_id":"way/604386564"},"geometry":{"type":"Polygon","coordinates":[[[3.345218,6.610743],[3.34558,6.610671],[3.346031,6.610404],[3.346287,6.6104],[3.346551,6.610166],[3.347718,6.609471],[3.347856,6.609285],[3.348153,6.609108],[3.348657,6.608696],[3.349027,6.608554],[3.349482,6.608542],[3.349747,6.6087],[3.350873,6.609018],[3.345218,6.610743]]]}},{"type":"Feature","properties":{"waterway":"stream","osm_id":"way/604386559"},"geometry":{"type":"Polygon","coordinates":[[[3.362412,6.628818],[3.362675,6.628904],[3.362937,6.628872],[3.364241,6.629351],[3.36578,6.628651],[3.36618,6.628585],[3.367186,6.628273],[3.367826,6.627921],[3.369769,6.627206],[3.370292,6.626974],[3.370558,6.626761],[3.371165,6.626571],[3.371506,6.626348],[3.37188,6.626242],[3.372146,6.626051],[3.372706,6.625527],[3.37308,6.625337],[3.374808,6.624924],[3.375378,6.624878],[3.375938,6.624915],[3.3769,6.625161],[3.377362,6.625365],[3.378707,6.62542],[3.379319,6.625504],[3.37987,6.625495],[3.380295,6.625397],[3.380935,6.625439],[3.381864,6.62517],[3.382065,6.625179],[3.382509,6.625077],[3.382822,6.62511],[3.383223,6.625012],[3.383615,6.624799],[3.384134,6.624613],[3.384867,6.624233],[3.385301,6.624242],[3.385535,6.623996],[3.386333,6.623551],[3.387804,6.623259],[3.388355,6.623184],[3.388738,6.623249],[3.389037,6.623171],[3.389448,6.622915],[3.389789,6.622795],[3.389971,6.622628],[3.3902,6.622234],[3.390368,6.622062],[3.390373,6.621491],[3.389775,6.619552],[3.389005,6.618355],[3.38871,6.618068],[3.388575,6.617715],[3.388496,6.617265],[3.388472,6.616741],[3.388594,6.61617],[3.388603,6.615725],[3.388549,6.615441],[3.388111,6.61467],[3.38786,6.614157],[3.387753,6.613809],[3.387688,6.613299],[3.387697,6.612677],[3.38795,6.612641],[3.389584,6.612654],[3.390536,6.612988],[3.391545,6.613554],[3.39239,6.613819],[3.392867,6.613614],[3.39339,6.613526],[3.393773,6.613559],[3.394487,6.613823],[3.394879,6.613898],[3.395874,6.613805],[3.396841,6.613406],[3.397209,6.61334],[3.362412,6.628818]]]}},{"type":"Feature","properties":{"waterway":"stream","name":"Ogudu Creek","osm_id":"way/761430226"},"geometry":{"type":"Polygon","coordinates":[[[3.372217,6.580916],[3.372755,6.580041],[3.373835,6.57931],[3.374579,6.578874],[3.374856,6.578182],[3.375638,6.577367],[3.375953,6.577188],[3.376332,6.576752],[3.377038,6.576307],[3.377596,6.575897],[3.379025,6.574734],[3.382219,6.572268],[3.382426,6.572006],[3.382726,6.57174],[3.38337,6.571366],[3.383714,6.571228],[3.38439,6.571089],[3.384765,6.5711],[3.372217,6.580916]]]}},{"type":"Feature","properties":{"natural":"water","name":"Ziggies Pool","osm_id":"way/701717780"},"geometry":{"type":"Polygon","coordinates":[[[3.372507,6.623205],[3.372423,6.623019],[3.372499,6.622988],[3.372589,6.62317],[3.372507,6.623205]]]}}]}